NORAD_CAT_ID,OBJECT_NAME,OBJECT_TYPE,EPOCH,MEAN_MOTION,ECCENTRICITY,INCLINATION,RA_OF_ASC_NODE,ARG_OF_PERICENTER,MEAN_ANOMALY,BSTAR,MEAN_MOTION_DOT,MEAN_MOTION_DDOT,TLE_LINE0,TLE_LINE1,TLE_LINE2,SEMIMAJOR_AXIS,PERIOD,APOGEE,PERIGEE,DECAYED
55742.0,STARLINK-5594,PAYLOAD,2024-08-01 14:02:40,14.98354131,0.0003201,70.0009,279.8549,267.2604,92.8189,0.0011978,0.00014237,0.0,0 STARLINK-5594,1 55742U 23028B   24214.58519576  .00014237  00000-0  11978-2 0  9992,2 55742  70.0009 279.8549 0003201 267.2604  92.8189 14.98354131 78391,6950.118,96.105,574.208,569.759,0.0
55742.0,STARLINK-5594,PAYLOAD,2024-08-01 20:27:13,14.98331596,0.0003162,70.0009,279.1816,268.4159,91.6638,-0.00017936,-2.233e-05,0.0,0 STARLINK-5594,1 55742U 23028B   24214.85223670 -.00002233  00000-0 -17936-3 0  9995,2 55742  70.0009 279.1816 0003162 268.4159  91.6638 14.98331596 78436,6950.188,96.107,574.251,569.855,0.0
55742.0,STARLINK-5594,PAYLOAD,2024-08-01 22:03:21,14.98331547,0.0003166,70.0009,279.0131,268.5596,91.52,-0.00011874,-1.51e-05,0.0,0 STARLINK-5594,1 55742U 23028B   24214.91899678 -.00001510  00000-0 -11874-3 0  9991,2 55742  70.0009 279.0131 0003166 268.5596  91.5200 14.98331547 78446,6950.188,96.107,574.254,569.853,0.0
55742.0,STARLINK-5594,PAYLOAD,2024-08-02 14:04:41,14.98335502,0.0003266,70.0008,277.3301,271.4468,88.6317,0.00042729,5.01e-05,0.0,0 STARLINK-5594,1 55742U 23028B   24215.58659714  .00005010  00000-0  42729-3 0  9990,2 55742  70.0008 277.3301 0003266 271.4468  88.6317 14.98335502 78549,6950.176,96.107,574.311,569.771,0.0
55742.0,STARLINK-5594,PAYLOAD,2024-08-02 20:29:14,14.98334151,0.0003271,70.0008,276.6568,271.9902,88.0882,0.00061022,7.196e-05,0.0,0 STARLINK-5594,1 55742U 23028B   24215.85363810  .00007196  00000-0  61022-3 0  9993,2 55742  70.0008 276.6568 0003271 271.9902  88.0882 14.98334151 78584,6950.18,96.107,574.318,569.772,0.0
55742.0,STARLINK-5594,PAYLOAD,2024-08-02 22:05:22,14.98333343,0.0003272,70.0007,276.4884,272.3147,87.7637,0.00063204,7.457e-05,0.0,0 STARLINK-5594,1 55742U 23028B   24215.92039852  .00007457  00000-0  63204-3 0  9991,2 55742  70.0007 276.4884 0003272 272.3147  87.7637 14.98333343 78596,6950.183,96.107,574.322,569.773,0.0
55742.0,STARLINK-5594,PAYLOAD,2024-08-03 14:06:43,14.98340017,0.000329,70.0005,274.8053,272.621,87.4572,0.00071221,8.418e-05,0.0,0 STARLINK-5594,1 55742U 23028B   24216.58799800  .00008418  00000-0  71221-3 0  9996,2 55742  70.0005 274.8053 0003290 272.6210  87.4572 14.98340017 78690,6950.162,96.106,574.314,569.74,0.0
55742.0,STARLINK-5594,PAYLOAD,2024-08-04 04:31:55,14.98333531,0.0003129,70.0009,273.2903,272.9548,87.1253,0.00028557,3.316e-05,0.0,0 STARLINK-5594,1 55742U 23028B   24217.18883981  .00003316  00000-0  28557-3 0  9993,2 55742  70.0009 273.2903 0003129 272.9548  87.1253 14.98333531 78785,6950.182,96.107,574.222,569.872,0.0
55742.0,STARLINK-5594,PAYLOAD,2024-08-04 14:08:43,14.98339843,0.0003223,69.9996,272.2802,272.3954,87.6836,0.00034607,4.04e-05,0.0,0 STARLINK-5594,1 55742U 23028B   24217.58939624  .00004040  00000-0  34607-3 0  9991,2 55742  69.9996 272.2802 0003223 272.3954  87.6836 14.98339843 78845,6950.162,96.106,574.267,569.787,0.0
55742.0,STARLINK-5594,PAYLOAD,2024-08-05 04:33:56,14.98339416,0.0003147,70.0,270.7651,272.208,87.8718,0.00029925,3.48e-05,0.0,0 STARLINK-5594,1 55742U 23028B   24218.19023526  .00003480  00000-0  29925-3 0  9998,2 55742  70.0000 270.7651 0003147 272.2080  87.8718 14.98339416 78930,6950.164,96.106,574.216,569.842,0.0
55742.0,STARLINK-5594,PAYLOAD,2024-08-05 20:35:16,14.983411,0.0003177,69.9995,269.0823,271.7553,88.3242,0.00021548,2.48e-05,0.0,0 STARLINK-5594,1 55742U 23028B   24218.85783118  .00002480  00000-0  21548-3 0  9993,2 55742  69.9995 269.0823 0003177 271.7553  88.3242 14.98341100 79037,6950.159,96.106,574.232,569.815,0.0
55742.0,STARLINK-5594,PAYLOAD,2024-08-06 12:36:38,14.98284949,0.0003056,69.9997,267.3988,271.1962,88.8847,0.0011891,0.00014107,0.0,0 STARLINK-5594,1 55742U 23028B   24219.52544015  .00014107  00000-0  11891-2 0  9997,2 55742  69.9997 267.3988 0003056 271.1962  88.8847 14.98284949 79130,6950.332,96.11,574.321,570.073,0.0
55742.0,STARLINK-5594,PAYLOAD,2024-08-07 12:38:39,14.98330102,0.0003235,69.9995,264.8746,273.2321,86.8468,0.00070296,8.305e-05,0.0,0 STARLINK-5594,1 55742U 23028B   24220.52684471  .00008305  00000-0  70296-3 0  9998,2 55742  69.9995 264.8746 0003235 273.2321  86.8468 14.98330102 79289,6950.193,96.107,574.306,569.809,0.0
55742.0,STARLINK-5594,PAYLOAD,2024-08-08 12:40:39,14.98352336,0.0003371,69.9992,262.3487,273.8893,86.1881,0.00071105,8.406e-05,0.0,0 STARLINK-5594,1 55742U 23028B   24221.52823396  .00008406  00000-0  71105-3 0  9992,2 55742  69.9992 262.3487 0003371 273.8893  86.1881 14.98352336 79434,6950.124,96.106,574.332,569.646,0.0
55742.0,STARLINK-5594,PAYLOAD,2024-08-09 04:41:59,14.98343082,0.0003376,69.9993,260.6655,274.8688,85.2086,0.00021595,2.485e-05,0.0,0 STARLINK-5594,1 55742U 23028B   24222.19583200  .00002485  00000-0  21595-3 0  9992,2 55742  69.9993 260.6655 0003376 274.8688  85.2086 14.98343082 79537,6950.152,96.106,574.364,569.671,0.0
55742.0,STARLINK-5594,PAYLOAD,2024-08-09 12:42:40,14.98343241,0.000345,69.9992,259.8236,272.0805,87.9958,0.00022449,2.587e-05,0.0,0 STARLINK-5594,1 55742U 23028B   24222.52963047  .00002587  00000-0  22449-3 0  9992,2 55742  69.9992 259.8236 0003450 272.0805  87.9958 14.98343241 79584,6950.152,96.106,574.415,569.619,0.0
55742.0,STARLINK-5594,PAYLOAD,2024-08-10 03:07:52,14.98331659,0.0003305,69.9999,258.3087,274.5815,85.4967,-9.4438e-05,-1.22e-05,0.0,0 STARLINK-5594,1 55742U 23028B   24223.13047356 -.00001220  00000-0 -94438-4 0  9999,2 55742  69.9999 258.3087 0003305 274.5815  85.4967 14.98331659 79679,6950.188,96.107,574.35,569.756,0.0
55742.0,STARLINK-5594,PAYLOAD,2024-08-10 12:44:40,14.9834834,0.0003452,69.9986,257.2989,276.6144,83.4622,-0.00024872,-3.061e-05,0.0,0 STARLINK-5594,1 55742U 23028B   24223.53102942 -.00003061  00000-0 -24872-3 0  9995,2 55742  69.9986 257.2989 0003452 276.6144  83.4622 14.98348340 79733,6950.136,96.106,574.4,569.602,0.0
55742.0,STARLINK-5594,PAYLOAD,2024-08-11 03:09:54,14.98331992,0.0003119,69.9986,255.7839,271.3682,88.712,0.00010293,1.135e-05,0.0,0 STARLINK-5594,1 55742U 23028B   24224.13187502  .00001135  00000-0  10293-3 0  9997,2 55742  69.9986 255.7839 0003119 271.3682  88.7120 14.98331992 79825,6950.187,96.107,574.219,569.884,0.0
55742.0,STARLINK-5594,PAYLOAD,2024-08-11 19:11:13,14.98351033,0.0003213,69.9985,254.1003,274.0242,86.0549,-0.00018736,-2.329e-05,0.0,0 STARLINK-5594,1 55742U 23028B   24224.79946566 -.00002329  00000-0 -18736-3 0  9990,2 55742  69.9985 254.1003 0003213 274.0242  86.0549 14.98351033 79922,6950.128,96.106,574.226,569.76,0.0
55742.0,STARLINK-5594,PAYLOAD,2024-08-12 04:48:02,14.98334453,0.0003185,69.9995,253.0901,270.3286,89.7508,0.0001809,2.066e-05,0.0,0 STARLINK-5594,1 55742U 23028B   24225.20003266  .00002066  00000-0  18090-3 0  9997,2 55742  69.9995 253.0901 0003185 270.3286  89.7508 14.98334453 79981,6950.179,96.107,574.258,569.83,0.0
55742.0,STARLINK-5594,PAYLOAD,2024-08-12 09:36:26,14.98337767,0.0003223,69.9994,252.5853,270.1302,89.9488,0.00024894,2.879e-05,0.0,0 STARLINK-5594,1 55742U 23028B   24225.40031048  .00002879  00000-0  24894-3 0  9999,2 55742  69.9994 252.5853 0003223 270.1302  89.9488 14.98337767 80016,6950.169,96.107,574.274,569.794,0.0
55742.0,STARLINK-5594,PAYLOAD,2024-08-12 19:13:14,14.98341525,0.0003257,69.9993,251.5748,267.8059,92.2728,0.00027475,3.188e-05,0.0,0 STARLINK-5594,1 55742U 23028B   24225.80086696  .00003188  00000-0  27475-3 0  9994,2 55742  69.9993 251.5748 0003257 267.8059  92.2728 14.98341525 80073,6950.157,96.106,574.286,569.759,0.0
55742.0,STARLINK-5594,PAYLOAD,2024-08-13 04:50:03,14.98329237,0.0003109,69.9997,250.5653,270.0053,90.075,-7.0286e-05,-9.32e-06,0.0,0 STARLINK-5594,1 55742U 23028B   24226.20143147 -.00000932  00000-0 -70286-4 0  9999,2 55742  69.9997 250.5653 0003109 270.0053  90.0750 14.98329237 80131,6950.195,96.107,574.221,569.899,0.0
55742.0,STARLINK-5594,PAYLOAD,2024-08-13 11:14:36,14.98328819,0.0002999,69.9996,249.8915,266.7196,93.3619,-3.7528e-06,-1.38e-06,0.0,0 STARLINK-5594,1 55742U 23028B   24226.46847292 -.00000138  00000-0 -37528-5 0  9990,2 55742  69.9996 249.8915 0002999 266.7196  93.3619 14.98328819 80177,6950.197,96.107,574.146,569.977,0.0
55742.0,STARLINK-5594,PAYLOAD,2024-08-13 19:15:16,14.98327459,0.0003093,69.9983,249.0486,270.636,89.4445,-3.5037e-05,-5.11e-06,0.0,0 STARLINK-5594,1 55742U 23028B   24226.80227756 -.00000511  00000-0 -35037-4 0  9992,2 55742  69.9983 249.0486 0003093 270.6360  89.4445 14.98327459 80229,6950.201,96.107,574.215,569.916,0.0
55742.0,STARLINK-5594,PAYLOAD,2024-08-14 04:52:05,14.98323258,0.0003149,69.9978,248.0389,270.0506,90.0292,-4.1836e-05,-5.92e-06,0.0,0 STARLINK-5594,1 55742U 23028B   24227.20284090 -.00000592  00000-0 -41836-4 0  9994,2 55742  69.9978 248.0389 0003149 270.0506  90.0292 14.98323258 80289,6950.214,96.107,574.267,569.89,0.0
55742.0,STARLINK-5594,PAYLOAD,2024-08-14 11:16:37,14.98322871,0.0003102,69.9982,247.3675,268.9925,91.0879,-9.2964e-05,-1.202e-05,0.0,0 STARLINK-5594,1 55742U 23028B   24227.46988323 -.00001202  00000-0 -92964-4 0  9999,2 55742  69.9982 247.3675 0003102 268.9925  91.0879 14.98322871 80321,6950.215,96.107,574.236,569.924,0.0
55742.0,STARLINK-5594,PAYLOAD,2024-08-14 19:17:18,14.9831677,0.0002824,69.998,246.5249,276.4621,83.6217,0.00010289,1.134e-05,0.0,0 STARLINK-5594,1 55742U 23028B   24227.80368637  .00001134  00000-0  10289-3 0  9998,2 55742  69.9980 246.5249 0002824 276.4621  83.6217 14.98316770 80373,6950.234,96.108,574.062,570.136,0.0
55742.0,STARLINK-5594,PAYLOAD,2024-08-15 04:54:06,14.98324535,0.0003107,69.9978,245.5145,270.6838,89.3965,7.7533e-05,8.32e-06,0.0,0 STARLINK-5594,1 55742U 23028B   24228.20424102  .00000832  00000-0  77533-4 0  9993,2 55742  69.9978 245.5145 0003107 270.6838  89.3965 14.98324535 80433,6950.21,96.107,574.234,569.915,0.0
